IRIDIUM 116             
1 43072U 17083C   24346.85762793  .00000380  00000+0  12861-3 0  9992
2 43072  86.3993 192.8347 0001822  90.1543 269.9862 14.34216291365004
IRIDIUM 130             
1 43073U 17083D   24346.61660511  .00000564  00000+0  19432-3 0  9997
2 43073  86.4000 193.1564 0001806  84.1644 275.9758 14.34221901364911
IRIDIUM 151             
1 43074U 17083E   24346.66101353  .00000134  00000+0  40882-4 0  9994
2 43074  86.3994 192.9618 0002032  90.9918 269.1511 14.34213101364949
IRIDIUM 134             
1 43075U 17083F   24346.83860018  .00000434  00000+0  14780-3 0  9994
2 43075  86.3997 192.8885 0001863  85.9035 274.2374 14.34219097364936
IRIDIUM 137             
1 43076U 17083G   24346.85129125  .00000545  00000+0  18739-3 0  9995
2 43076  86.3998 192.9644 0001875 102.9126 257.2279 14.34219046365004
IRIDIUM 141             
1 43077U 17083H   24346.84494812  .00000554  00000+0  19073-3 0  9995
2 43077  86.3995 192.8296 0002232  79.6253 280.5194 14.34219560365009
IRIDIUM 153             
1 43078U 17083J   24346.72735487  .00000066  00000+0  16645-4 0  9990
2 43078  86.3985 161.4051 0002517  81.4081 278.7400 14.34217769366094
IRIDIUM 131             
1 43079U 17083K   24346.69272291  .00000527  00000+0  18109-3 0  9994
2 43079  86.3998 193.0418 0002121  87.9812 272.1626 14.34218747364915
